[
    {
        "Altitude(m)": 571150.0644424964,
        "Argument of Periapsis(deg)": 0.006622991110713501,
        "Eccentricity": 0.0,
        "Inclination(deg)": 53.0,
        "Latitude(deg)": -51.35894246505156,
        "Longitude(deg)": -86.14976955962072,
        "Mean Anomaly(deg)": -102.6357071324224,
        "RAAN(deg)": 124.99014336852804,
        "Satellite Name": "Starlink Shell 1 565",
        "Satellite Number": 565,
        "Semi-Major Axis(m)": 6931778.249405717,
        "Time(s)": 190
    },
    {
        "Altitude(m)": 571216.6093419986,
        "Argument of Periapsis(deg)": 0.0069715695902247375,
        "Eccentricity": 0.0,
        "Inclination(deg)": 53.0,
        "Latitude(deg)": -51.52881474887682,
        "Longitude(deg)": -85.22904834690058,
        "Mean Anomaly(deg)": -102.00887592886573,
        "RAAN(deg)": 124.98962459845055,
        "Satellite Name": "Starlink Shell 1 565",
        "Satellite Number": 565,
        "Semi-Major Axis(m)": 6931778.249405717,
        "Time(s)": 200
    },
    {
        "Altitude(m)": 571279.9240590475,
        "Argument of Periapsis(deg)": 0.007320148069735974,
        "Eccentricity": 0.0,
        "Inclination(deg)": 53.0,
        "Latitude(deg)": -51.69073871402211,
        "Longitude(deg)": -84.30132214179423,
        "Mean Anomaly(deg)": -101.38204472530902,
        "RAAN(deg)": 124.98910582837308,
        "Satellite Name": "Starlink Shell 1 565",
        "Satellite Number": 565,
        "Semi-Major Axis(m)": 6931778.249405717,
        "Time(s)": 210
    },
    {
        "Altitude(m)": 571339.9833467167,
        "Argument of Periapsis(deg)": 0.007668726549247212,
        "Eccentricity": 0.0,
        "Inclination(deg)": 53.0,
        "Latitude(deg)": -51.844612208408996,
        "Longitude(deg)": -83.36684205757648,
        "Mean Anomaly(deg)": -100.75521352175231,
        "RAAN(deg)": 124.98858705829561,
        "Satellite Name": "Starlink Shell 1 565",
        "Satellite Number": 565,
        "Semi-Major Axis(m)": 6931778.249405717,
        "Time(s)": 220
    },
    {
        "Altitude(m)": 571396.7632500317,
        "Argument of Periapsis(deg)": 0.00801730502875845,
        "Eccentricity": 0.0,
        "Inclination(deg)": 53.0,
        "Latitude(deg)": -51.99033655904704,
        "Longitude(deg)": -82.42587515944984,
        "Mean Anomaly(deg)": -100.12838231819552,
        "RAAN(deg)": 124.98806828821813,
        "Satellite Name": "Starlink Shell 1 565",
        "Satellite Number": 565,
        "Semi-Major Axis(m)": 6931778.249405717,
        "Time(s)": 230
    },
    {
        "Altitude(m)": 571450.2411163162,
        "Argument of Periapsis(deg)": 0.008365883508269684,
        "Eccentricity": 0.0,
        "Inclination(deg)": 53.0,
        "Latitude(deg)": -52.12781685214926,
        "Longitude(deg)": -81.47870372017123,
        "Mean Anomaly(deg)": -99.50155111463884,
        "RAAN(deg)": 124.98754951814067,
        "Satellite Name": "Starlink Shell 1 565",
        "Satellite Number": 565,
        "Semi-Major Axis(m)": 6931778.249405717,
        "Time(s)": 240
    },
    {
        "Altitude(m)": 571500.3956050491,
        "Argument of Periapsis(deg)": 0.008714461987780921,
        "Eccentricity": 0.0,
        "Inclination(deg)": 53.0,
        "Latitude(deg)": -52.25696221031034,
        "Longitude(deg)": -80.52562590565725,
        "Mean Anomaly(deg)": -98.87471991108215,
        "RAAN(deg)": 124.9870307480632,
        "Satellite Name": "Starlink Shell 1 565",
        "Satellite Number": 565,
        "Semi-Major Axis(m)": 6931778.249405717,
        "Time(s)": 250
    },
    {
        "Altitude(m)": 571547.2066970925,
        "Argument of Periapsis(deg)": 0.009063040467292158,
        "Eccentricity": 0.0,
        "Inclination(deg)": 53.0,
        "Latitude(deg)": -52.37768606506599,
        "Longitude(deg)": -79.56695486310839,
        "Mean Anomaly(deg)": -98.24788870752546,
        "RAAN(deg)": 124.98651197798571,
        "Satellite Name": "Starlink Shell 1 565",
        "Satellite Number": 565,
        "Semi-Major Axis(m)": 6931778.249405717,
        "Time(s)": 260
    },
    {
        "Altitude(m)": 571590.655703357,
        "Argument of Periapsis(deg)": 0.009411618946803396,
        "Eccentricity": 0.0,
        "Inclination(deg)": 53.0,
        "Latitude(deg)": -52.48990642303637,
        "Longitude(deg)": -78.6030177241801,
        "Mean Anomaly(deg)": -97.62105750396871,
        "RAAN(deg)": 124.98599320790825,
        "Satellite Name": "Starlink Shell 1 565",
        "Satellite Number": 565,
        "Semi-Major Axis(m)": 6931778.249405717,
        "Time(s)": 270
    },
    {
        "Altitude(m)": 571630.7252729279,
        "Argument of Periapsis(deg)": 0.009760197426314633,
        "Eccentricity": 0.0,
        "Inclination(deg)": 53.0,
        "Latitude(deg)": -52.59354612404925,
        "Longitude(deg)": -77.63415603467003,
        "Mean Anomaly(deg)": -96.99422630041195,
        "RAAN(deg)": 124.98547443783077,
        "Satellite Name": "Starlink Shell 1 565",
        "Satellite Number": 565,
        "Semi-Major Axis(m)": 6931778.249405717,
        "Time(s)": 280
    },
    {
        "Altitude(m)": 571667.3994005563,
        "Argument of Periapsis(deg)": 0.01010877590582587,
        "Eccentricity": 0.0,
        "Inclination(deg)": 53.0,
        "Latitude(deg)": -52.68853308924494,
        "Longitude(deg)": -76.66072458762945,
        "Mean Anomaly(deg)": -96.36739509685528,
        "RAAN(deg)": 124.9849556677533,
        "Satellite Name": "Starlink Shell 1 565",
        "Satellite Number": 565,
        "Semi-Major Axis(m)": 6931778.249405717,
        "Time(s)": 290
    },
    {
        "Altitude(m)": 571700.6634335894,
        "Argument of Periapsis(deg)": 0.010457354385337106,
        "Eccentricity": 0.0,
        "Inclination(deg)": 53.0,
        "Latitude(deg)": -52.774800557576576,
        "Longitude(deg)": -75.68309017301198,
        "Mean Anomaly(deg)": -95.74056389329859,
        "RAAN(deg)": 124.98443689767583,
        "Satellite Name": "Starlink Shell 1 565",
        "Satellite Number": 565,
        "Semi-Major Axis(m)": 6931778.249405717,
        "Time(s)": 300
    },
    {
        "Altitude(m)": 571730.5040783181,
        "Argument of Periapsis(deg)": 0.010805932864848343,
        "Eccentricity": 0.0,
        "Inclination(deg)": 53.0,
        "Latitude(deg)": -52.85228730889981,
        "Longitude(deg)": -74.70163175993976,
        "Mean Anomaly(deg)": -95.1137326897419,
        "RAAN(deg)": 124.98391812759837,
        "Satellite Name": "Starlink Shell 1 565",
        "Satellite Number": 565,
        "Semi-Major Axis(m)": 6931778.249405717,
        "Time(s)": 310
    },
    {
        "Altitude(m)": 571756.9094057318,
        "Argument of Periapsis(deg)": 0.01115451134435958,
        "Eccentricity": 0.0,
        "Inclination(deg)": 53.0,
        "Latitude(deg)": -52.92093787198652,
        "Longitude(deg)": -73.7167390892417,
        "Mean Anomaly(deg)": -94.48690148618512,
        "RAAN(deg)": 124.98339935752088,
        "Satellite Name": "Starlink Shell 1 565",
        "Satellite Number": 565,
        "Semi-Major Axis(m)": 6931778.249405717,
        "Time(s)": 320
    },
    {
        "Altitude(m)": 571779.868856687,
        "Argument of Periapsis(deg)": 0.011503089823870818,
        "Eccentricity": 0.0,
        "Inclination(deg)": 53.0,
        "Latitude(deg)": -52.98070271585802,
        "Longitude(deg)": -72.72881119356485,
        "Mean Anomaly(deg)": -93.8600702826284,
        "RAAN(deg)": 124.98288058744342,
        "Satellite Name": "Starlink Shell 1 565",
        "Satellite Number": 565,
        "Semi-Major Axis(m)": 6931778.249405717,
        "Time(s)": 330
    },
    {
        "Altitude(m)": 571799.3732464582,
        "Argument of Periapsis(deg)": 0.011851668303382053,
        "Eccentricity": 0.0,
        "Inclination(deg)": 53.0,
        "Latitude(deg)": -53.031538422931696,
        "Longitude(deg)": -71.7382563632375,
        "Mean Anomaly(deg)": -93.2332390790717,
        "RAAN(deg)": 124.98236181736594,
        "Satellite Name": "Starlink Shell 1 565",
        "Satellite Number": 565,
        "Semi-Major Axis(m)": 6931778.249405717,
        "Time(s)": 340
    },
    {
        "Altitude(m)": 571815.4147687412,
        "Argument of Periapsis(deg)": 0.012200246782893292,
        "Eccentricity": 0.0,
        "Inclination(deg)": 53.0,
        "Latitude(deg)": -53.07340784258787,
        "Longitude(deg)": -70.74549053827177,
        "Mean Anomaly(deg)": -92.60640787551503,
        "RAAN(deg)": 124.98184304728845,
        "Satellite Name": "Starlink Shell 1 565",
        "Satellite Number": 565,
        "Semi-Major Axis(m)": 6931778.249405717,
        "Time(s)": 350
    },
    {
        "Altitude(m)": 571827.9869990007,
        "Argument of Periapsis(deg)": 0.012548825262404526,
        "Eccentricity": 0.0,
        "Inclination(deg)": 53.0,
        "Latitude(deg)": -53.106280223903745,
        "Longitude(deg)": -69.75093564630119,
        "Mean Anomaly(deg)": -91.97957667195828,
        "RAAN(deg)": 124.981324277211,
        "Satellite Name": "Starlink Shell 1 565",
        "Satellite Number": 565,
        "Semi-Major Axis(m)": 6931778.249405717,
        "Time(s)": 360
    },
    {
        "Altitude(m)": 571837.0848972717,
        "Argument of Periapsis(deg)": 0.012897403741915765,
        "Eccentricity": 0.0,
        "Inclination(deg)": 53.0,
        "Latitude(deg)": -53.130131326454986,
        "Longitude(deg)": -68.75501940695298,
        "Mean Anomaly(deg)": -91.35274546840154,
        "RAAN(deg)": 124.98080550713354,
        "Satellite Name": "Starlink Shell 1 565",
        "Satellite Number": 565,
        "Semi-Major Axis(m)": 6931778.249405717,
        "Time(s)": 370
    }
]